2024-018A               
1 58849U 24018A   24045.49265987  .00002852  00000+0  34362-3 0  9991
2 58849  58.6916 327.1954 0456673 182.4906 177.3844 14.32798009  2518
2024-018B               
1 58850U 24018B   24045.48421726  .00004739  00000+0  55024-3 0  9991
2 58850  58.6999 327.1715 0453457 182.9509 176.8826 14.33514002  2500
2024-018C               
1 58851U 24018C   24045.47738340  .00002927  00000+0  35005-3 0  9998
2 58851  58.6886 327.1280 0450833 182.4154 177.4697 14.34044705  2512
2024-018D               
1 58852U 24018D   24045.40873599  .00009296  00000+0  10479-2 0  9991
2 58852  58.6779 327.3590 0451236 181.9156 178.0159 14.34045782  2509
STARLINK-31238          
1 58853U 24019A   24045.58334491 -.01740409  00000+0 -28518-1 0  9998
2 58853  42.9997 181.7469 0001071 279.7468 356.9134 15.54828978  3516
STARLINK-31158          
1 58854U 24019B   24045.58334491 -.01744437  00000+0 -28588-1 0  9991
2 58854  42.9998 181.7436 0001302 264.1582  14.2298 15.54830623  3621
STARLINK-31237          
1 58855U 24019C   24045.58334491 -.01745223  00000+0 -28600-1 0  9991
2 58855  42.9998 181.7456 0001400 266.5091  11.0147 15.54832028  3713
STARLINK-31244          
1 58856U 24019D   24045.58334491 -.01744662  00000+0 -28593-1 0  9999
2 58856  42.9998 181.7410 0001300 264.5833  14.6693 15.54829824  3664
STARLINK-31216          
1 58857U 24019E   24045.58334491 -.01753073  00000+0 -23342-1 0  9993
2 58857  43.0000 181.1092 0001220 279.4389 252.4425 15.60321950  3662
STARLINK-31226          
1 58858U 24019F   24045.58334491 -.01744578  00000+0 -28593-1 0  9997
2 58858  42.9998 181.7371 0001327 263.0666  17.9150 15.54828123  3822
STARLINK-31197          
1 58859U 24019G   24045.58334491 -.01744719  00000+0 -28597-1 0  9999
2 58859  42.9997 181.7341 0001275 263.3201  18.5258 15.54827283  3821
STARLINK-31213          
1 58860U 24019H   24045.58334491 -.01750730  00000+0 -27996-1 0  9993
2 58860  42.9999 181.6155 0001545 271.1537  58.2014 15.55499062  3828
STARLINK-31199          
1 58861U 24019J   24045.58334491 -.01744891  00000+0 -28601-1 0  9999
2 58861  42.9997 181.7301 0001372 266.2234  17.3517 15.54825596  3826
STARLINK-31200          
1 58862U 24019K   24045.58334491 -.01744895  00000+0 -28603-1 0  9996
2 58862  42.9998 181.7276 0001248 261.1631  23.2763 15.54824911  3825
STARLINK-31149          
1 58863U 24019L   24045.58334491 -.01748465  00000+0 -28669-1 0  9996
2 58863  42.9999 181.7255 0001226 272.4440  12.8600 15.54824762  3821
STARLINK-31242          
1 58864U 24019M   24045.58334491 -.01745601  00000+0 -28617-1 0  9999
2 58864  42.9998 181.7241 0001329 265.8085  20.3605 15.54823206  3822
STARLINK-31223          
1 58865U 24019N   24045.58334491 -.01745236  00000+0 -28611-1 0  9998
2 58865  42.9998 181.7216 0001359 265.5418  21.4915 15.54822270  3663
STARLINK-31219          
1 58866U 24019P   24045.58334491 -.01747270  00000+0 -28648-1 0  9999
2 58866  42.9998 181.7185 0001497 270.9638  16.9342 15.54821329  3584
STARLINK-31198          
1 58867U 24019Q   24045.25001157 -.01712031  00000+0 -24205-1 0  9996
2 58867  43.0004 183.3230 0001553 270.8503  90.4211 15.58688459  3511
STARLINK-31196          
1 58868U 24019R   24045.58334491 -.01745183  00000+0 -28613-1 0  9994
2 58868  42.9998 181.7139 0001336 263.8339  25.7926 15.54819671  3578
STARLINK-31203          
1 58869U 24019S   24045.58334491 -.01748671  00000+0 -28677-1 0  9990
2 58869  42.9997 181.7130 0001388 273.8423  16.6491 15.54819318  3823
STARLINK-31201          
1 58870U 24019T   24045.58334491 -.01749224  00000+0 -28687-1 0  9998
2 58870  42.9998 181.7092 0001455 279.6412  11.7142 15.54818850  3616
STARLINK-31214          
1 58871U 24019U   24045.58334491 -.01745682  00000+0 -28625-1 0  9995
2 58871  42.9997 181.7073 0001328 265.3510  26.8693 15.54817082  3619
STARLINK-31215          
1 58872U 24019V   24045.58334491 -.01745640  00000+0 -28624-1 0  9999
2 58872  42.9997 181.7057 0001423 265.1218  27.9628 15.54816415  3665
STARLINK-31177          
1 58873U 24019W   24045.58334491 -.01748657  00000+0 -28680-1 0  9993
2 58873  42.9999 181.7035 0001435 279.3966  14.5524 15.54815814  3821
STARLINK-30945          
1 58874U 24019X   24045.25001157 -.01712397  00000+0 -23627-1 0  9996
2 58874  43.0003 183.3304 0001608 267.2626  91.7495 15.59324363  3775
STARLINK-31212          
1 58875U 24019Y   24045.58334491 -.01750307  00000+0 -28713-1 0  9997
2 58875  42.9998 181.6992 0001227 274.5191  21.1588 15.54815246  3664
STARLINK-31306          
1 58876U 24020A   24045.58334491 -.01740354  00000+0 -25190-1 0  9997
2 58876  53.1605 225.4190 0000790  90.8052 165.7746 15.58357205  3773
STARLINK-31326          
1 58877U 24020B   24045.58334491 -.01746420  00000+0 -25285-1 0  9993
2 58877  53.1606 225.4175 0000860  84.0437 173.3968 15.58360027  3775
STARLINK-31300          
1 58878U 24020C   24045.25001157 -.01744964  00000+0 -24090-1 0  9992
2 58878  53.1607 227.0334 0001281  78.7440 107.7444 15.59597154  3734
STARLINK-31296          
1 58879U 24020D   24045.58334491 -.01750790  00000+0 -25354-1 0  9997
2 58879  53.1604 225.4146 0001081  95.8661 163.2976 15.58359975  3775
STARLINK-31328          
1 58880U 24020E   24045.50038932 -.00098088  00000+0 -55902-3 0  9990
2 58880  53.1670 225.3996 0001220  62.7711 297.3435 15.78390891  3779
STARLINK-31260          
1 58881U 24020F   24045.58334491 -.01747620  00000+0 -25309-1 0  9998
2 58881  53.1605 225.4110 0000855  86.8528 174.0367 15.58355337  3772
STARLINK-31323          
1 58882U 24020G   24045.25001157 -.01745658  00000+0 -24106-1 0  9996
2 58882  53.1606 227.0241 0001221  81.6786 108.2661 15.59592001  3570
STARLINK-31209          
1 58883U 24020H   24045.58334491 -.01742892  00000+0 -25239-1 0  9998
2 58883  53.1606 225.4076 0000758  93.1432 169.4722 15.58349275  3668
STARLINK-31315          
1 58884U 24020J   24044.91667824 -.00571054  00000+0 -31495-2 0  9995
2 58884  53.1608 227.7242 0000509  50.1250 158.6546 15.80431238  3532
STARLINK-31318          
1 58885U 24020K   24045.25001157 -.01720554  00000+0 -19453-1 0  9996
2 58885  53.1607 226.7430 0000824 101.9638 226.6435 15.65160801  3569
STARLINK-31320          
1 58886U 24020L   24045.25001157 -.01748741  00000+0 -24159-1 0  9994
2 58886  53.1606 227.0178 0000874  79.7081 113.6916 15.59589350  3714
STARLINK-31321          
1 58887U 24020M   24045.58334491 -.01740296  00000+0 -25207-1 0  9993
2 58887  53.1606 225.3971 0000637  94.4122 172.5166 15.58339812  3619
STARLINK-30970          
1 58888U 24020N   24045.25001157 -.01745829  00000+0 -24115-1 0  9992
2 58888  53.1605 227.0165 0001145  98.0956  96.1684 15.59585836  3710
STARLINK-31007          
1 58889U 24020P   24045.58334491 -.01745683  00000+0 -25289-1 0  9990
2 58889  53.1605 225.3961 0000882  94.0677 173.7209 15.58343267  3780
STARLINK-31230          
1 58890U 24020Q   24045.25001157 -.01746977  00000+0 -24137-1 0  9994
2 58890  53.1604 227.0111 0001038  91.6436 105.2126 15.59582213  3603
STARLINK-31245          
1 58891U 24020R   24045.58334491 -.00391597  60202-4 -11194-2 0  9999
2 58891  53.1610 224.2355 0000915 344.5877 131.4691 15.92378271  3783
STARLINK-31254          
1 58892U 24020S   24045.25001157 -.01741324  00000+0 -24057-1 0  9998
2 58892  53.1605 227.0077 0000909  94.2308 104.3557 15.59575410  3711
STARLINK-31255          
1 58893U 24020T   24045.58334491 -.01746568  00000+0 -25309-1 0  9991
2 58893  53.1605 225.3890 0000807  90.7330 180.5044 15.58338056  3774
STARLINK-31243          
1 58894U 24020U   24045.50001157 -.01722061  00000+0 -24632-1 0  9994
2 58894  53.1605 225.7907 0000905  99.6550  64.6406 15.58633990  3497
STARLINK-31218          
1 58895U 24020V   24045.58334491 -.01745067  00000+0 -25289-1 0  9993
2 58895  53.1605 225.3852 0000757  90.2436 182.7193 15.58333972  3669
STARLINK-31221          
1 58896U 24020W   24045.58334491 -.01738694  00000+0 -25195-1 0  9998
2 58896  53.1606 225.3839 0000395  85.3514 188.4762 15.58327241  3663
STARLINK-31190          
1 58897U 24020X   24045.25001157 -.01746003  00000+0 -24132-1 0  9996
2 58897  53.1605 226.9983 0001006  91.0412 111.8645 15.59571653  3457
CYGNUS NG-20            
1 58898U 24021A   24044.52883947  .00024389  00000+0  43612-3 0  9991
2 58898  51.6376 213.1294 0001968 258.9233 101.1535 15.49861011439217
2024-022A               
1 58899U 24022A   24045.07032765  .00012589  00000+0  73617-3 0  9995
2 58899  97.4892 247.7575 0014601 243.3511 116.6225 15.11915172  2084
2024-022B               
1 58900U 24022B   24044.80425987  .00012039  00000+0  70147-3 0  9995
2 58900  97.4890 247.5001 0015131 241.0787 118.8926 15.12050833  2049
2024-022C               
1 58901U 24022C   24044.80258513  .00015240  00000+0  88132-3 0  9995
2 58901  97.4898 247.5019 0014059 237.2739 122.7137 15.12278269  2053
2024-022D               
1 58902U 24022D   24045.46246762  .00012223  00000+0  70508-3 0  9998
2 58902  97.4883 248.1516 0012240 223.8166 136.2095 15.12441492  2145
2024-022E               
1 58903U 24022E   24045.19613057  .00012657  00000+0  72615-3 0  9996
2 58903  97.4883 247.8944 0012854 222.1855 137.8388 15.12623359  2107
2024-023A               
1 58905U 24023A   24045.44083198  .00007725  00000+0  85784-3 0  9995
2 58905  49.9967  23.5703 0009923 338.1225  21.9290 14.87932067  1708
2024-023B               
1 58906U 24023B   24045.50248755  .00007912  00000+0  84934-3 0  9999
2 58906  50.0004  23.2263 0009519 309.6394  50.3706 14.89287383  1718
2024-023C               
1 58907U 24023C   24045.43420840  .00005923  00000+0  64035-3 0  9999
2 58907  50.0016  23.5335 0007620 315.2728  44.7598 14.89418408  1709
2024-023D               
1 58908U 24023D   24045.43381825  .00006019  00000+0  64952-3 0  9994
2 58908  49.9932  23.5232 0008131 316.2285  43.8011 14.89468800  1708
2024-023E               
1 58909U 24023E   24045.36081158  .00009017  00000+0  93005-3 0  9995
2 58909  50.0062  23.8127 0010940 289.6928  70.2833 14.90742706  1696
